[{"OBJECT_NAME":"STARLINK-30238","OBJECT_ID":"2023-096G","EPOCH":"2025-07-27T11:22:46.477056","MEAN_MOTION":15.14534134,"ECCENTRICITY":0.0015223,"INCLINATION":43.0008,"RA_OF_ASC_NODE":358.9208,"ARG_OF_PERICENTER":299.5946,"MEAN_ANOMALY":60.3384,"EPHEMERIS_TYPE":0,"CLASSIFICATION_TYPE":"U","NORAD_CAT_ID":57296,"ELEMENT_SET_NO":999,"REV_AT_EPOCH":11385,"BSTAR":0.0021123,"MEAN_MOTION_DOT":0.00039728,"MEAN_MOTION_DDOT":0},{"OBJECT_NAME":"STARLINK-30234","OBJECT_ID":"2023-096H","EPOCH":"2025-07-27T17:18:23.830560","MEAN_MOTION":15.31165419,"ECCENTRICITY":0.0027089,"INCLINATION":42.9948,"RA_OF_ASC_NODE":336.9558,"ARG_OF_PERICENTER":327.4273,"MEAN_ANOMALY":32.4908,"EPHEMERIS_TYPE":0,"CLASSIFICATION_TYPE":"U","NORAD_CAT_ID":57297,"ELEMENT_SET_NO":999,"REV_AT_EPOCH":11300,"BSTAR":0.0028509,"MEAN_MOTION_DOT":0.00089381,"MEAN_MOTION_DDOT":0},{"OBJECT_NAME":"STARLINK-30241","OBJECT_ID":"2023-096J","EPOCH":"2025-07-27T11:32:58.742016","MEAN_MOTION":15.16809895,"ECCENTRICITY":0.0015523,"INCLINATION":42.9985,"RA_OF_ASC_NODE":356.3812,"ARG_OF_PERICENTER":306.2959,"MEAN_ANOMALY":53.6454,"EPHEMERIS_TYPE":0,"CLASSIFICATION_TYPE":"U","NORAD_CAT_ID":57298,"ELEMENT_SET_NO":999,"REV_AT_EPOCH":11386,"BSTAR":0.0021719,"MEAN_MOTION_DOT":0.00043629,"MEAN_MOTION_DDOT":0},{"OBJECT_NAME":"STARLINK-30199","OBJECT_ID":"2023-096K","EPOCH":"2025-07-27T22:00:01.999584","MEAN_MOTION":15.69693953,"ECCENTRICITY":0.0030645,"INCLINATION":42.981,"RA_OF_ASC_NODE":316.5961,"ARG_OF_PERICENTER":1.509,"MEAN_ANOMALY":334.6116,"EPHEMERIS_TYPE":0,"CLASSIFICATION_TYPE":"U","NORAD_CAT_ID":57299,"ELEMENT_SET_NO":999,"REV_AT_EPOCH":11337,"BSTAR":0.0044875,"MEAN_MOTION_DOT":0.00603403,"MEAN_MOTION_DDOT":0},{"OBJECT_NAME":"STARLINK-30236","OBJECT_ID":"2023-096L","EPOCH":"2025-07-27T16:57:34.899552","MEAN_MOTION":15.02539576,"ECCENTRICITY":0.0001053,"INCLINATION":43.0054,"RA_OF_ASC_NODE":5.6932,"ARG_OF_PERICENTER":269.9054,"MEAN_ANOMALY":90.1667,"EPHEMERIS_TYPE":0,"CLASSIFICATION_TYPE":"U","NORAD_CAT_ID":57300,"ELEMENT_SET_NO":999,"REV_AT_EPOCH":11268,"BSTAR":4.7042e-5,"MEAN_MOTION_DOT":4.32e-6,"MEAN_MOTION_DDOT":0},{"OBJECT_NAME":"STARLINK-30201","OBJECT_ID":"2023-096M","EPOCH":"2025-07-27T18:28:31.242720","MEAN_MOTION":15.02535577,"ECCENTRICITY":0.0001079,"INCLINATION":43.0044,"RA_OF_ASC_NODE":5.312,"ARG_OF_PERICENTER":270.4989,"MEAN_ANOMALY":89.573,"EPHEMERIS_TYPE":0,"CLASSIFICATION_TYPE":"U","NORAD_CAT_ID":57301,"ELEMENT_SET_NO":999,"REV_AT_EPOCH":11268,"BSTAR":1.5854e-5,"MEAN_MOTION_DOT":1.1e-7,"MEAN_MOTION_DDOT":0},{"OBJECT_NAME":"STARLINK-30233","OBJECT_ID":"2023-096N","EPOCH":"2025-07-27T16:47:59.683776","MEAN_MOTION":15.02533056,"ECCENTRICITY":0.0001356,"INCLINATION":43.0054,"RA_OF_ASC_NODE":5.6268,"ARG_OF_PERICENTER":263.9528,"MEAN_ANOMALY":96.116,"EPHEMERIS_TYPE":0,"CLASSIFICATION_TYPE":"U","NORAD_CAT_ID":57302,"ELEMENT_SET_NO":999,"REV_AT_EPOCH":11268,"BSTAR":8.5073e-6,"MEAN_MOTION_DOT":-8.9e-7,"MEAN_MOTION_DDOT":0},{"OBJECT_NAME":"STARLINK-30232","OBJECT_ID":"2023-096P","EPOCH":"2025-07-27T09:51:56.903328","MEAN_MOTION":15.14284095,"ECCENTRICITY":0.001461,"INCLINATION":43.0008,"RA_OF_ASC_NODE":359.3086,"ARG_OF_PERICENTER":302.4406,"MEAN_ANOMALY":57.5028,"EPHEMERIS_TYPE":0,"CLASSIFICATION_TYPE":"U","NORAD_CAT_ID":57303,"ELEMENT_SET_NO":999,"REV_AT_EPOCH":11368,"BSTAR":0.0022125,"MEAN_MOTION_DOT":0.00041329,"MEAN_MOTION_DDOT":0},{"OBJECT_NAME":"STARLINK-30177","OBJECT_ID":"2023-096R","EPOCH":"2025-07-27T18:24:22.973184","MEAN_MOTION":15.14700348,"ECCENTRICITY":0.0015485,"INCLINATION":43.0002,"RA_OF_ASC_NODE":356.8088,"ARG_OF_PERICENTER":300.159,"MEAN_ANOMALY":59.7722,"EPHEMERIS_TYPE":0,"CLASSIFICATION_TYPE":"U","NORAD_CAT_ID":57305,"ELEMENT_SET_NO":999,"REV_AT_EPOCH":11278,"BSTAR":0.0021433,"MEAN_MOTION_DOT":0.00040513,"MEAN_MOTION_DDOT":0},{"OBJECT_NAME":"STARLINK-30200","OBJECT_ID":"2023-096S","EPOCH":"2025-07-27T11:37:21.846432","MEAN_MOTION":15.1657069,"ECCENTRICITY":0.0016138,"INCLINATION":42.9991,"RA_OF_ASC_NODE":356.4308,"ARG_OF_PERICENTER":303.1356,"MEAN_ANOMALY":56.7943,"EPHEMERIS_TYPE":0,"CLASSIFICATION_TYPE":"U","NORAD_CAT_ID":57306,"ELEMENT_SET_NO":999,"REV_AT_EPOCH":11296,"BSTAR":0.0021267,"MEAN_MOTION_DOT":0.00042427,"MEAN_MOTION_DDOT":0},{"OBJECT_NAME":"STARLINK-30209","OBJECT_ID":"2023-096T","EPOCH":"2025-07-27T10:44:55.847904","MEAN_MOTION":15.14361625,"ECCENTRICITY":0.0014687,"INCLINATION":42.9996,"RA_OF_ASC_NODE":358.7023,"ARG_OF_PERICENTER":299.9903,"MEAN_ANOMALY":59.9486,"EPHEMERIS_TYPE":0,"CLASSIFICATION_TYPE":"U","NORAD_CAT_ID":57307,"ELEMENT_SET_NO":999,"REV_AT_EPOCH":11293,"BSTAR":0.0021507,"MEAN_MOTION_DOT":0.00040252,"MEAN_MOTION_DDOT":0},{"OBJECT_NAME":"STARLINK-30194","OBJECT_ID":"2023-096U","EPOCH":"2025-07-27T22:00:01.999584","MEAN_MOTION":15.52397432,"ECCENTRICITY":0.0028332,"INCLINATION":42.9905,"RA_OF_ASC_NODE":324.6564,"ARG_OF_PERICENTER":347.9159,"MEAN_ANOMALY":285.1065,"EPHEMERIS_TYPE":0,"CLASSIFICATION_TYPE":"U","NORAD_CAT_ID":57308,"ELEMENT_SET_NO":999,"REV_AT_EPOCH":11316,"BSTAR":0.0033344,"MEAN_MOTION_DOT":0.00217719,"MEAN_MOTION_DDOT":0},{"OBJECT_NAME":"STARLINK-30163","OBJECT_ID":"2023-096V","EPOCH":"2025-07-27T10:48:26.754624","MEAN_MOTION":15.25574701,"ECCENTRICITY":0.0022378,"INCLINATION":42.999,"RA_OF_ASC_NODE":345.1285,"ARG_OF_PERICENTER":315.2639,"MEAN_ANOMALY":44.6407,"EPHEMERIS_TYPE":0,"CLASSIFICATION_TYPE":"U","NORAD_CAT_ID":57309,"ELEMENT_SET_NO":999,"REV_AT_EPOCH":11308,"BSTAR":0.0023049,"MEAN_MOTION_DOT":0.00060333,"MEAN_MOTION_DDOT":0},{"OBJECT_NAME":"STARLINK-30184","OBJECT_ID":"2023-096W","EPOCH":"2025-07-27T08:35:44.342304","MEAN_MOTION":15.02537878,"ECCENTRICITY":0.000129,"INCLINATION":43.0021,"RA_OF_ASC_NODE":341.5235,"ARG_OF_PERICENTER":270.6292,"MEAN_ANOMALY":89.4403,"EPHEMERIS_TYPE":0,"CLASSIFICATION_TYPE":"U","NORAD_CAT_ID":57310,"ELEMENT_SET_NO":999,"REV_AT_EPOCH":11312,"BSTAR":6.2327e-5,"MEAN_MOTION_DOT":6.38e-6,"MEAN_MOTION_DDOT":0},{"OBJECT_NAME":"STARLINK-30175","OBJECT_ID":"2023-096X","EPOCH":"2025-07-27T10:44:02.901120","MEAN_MOTION":15.14201675,"ECCENTRICITY":0.0014693,"INCLINATION":42.9998,"RA_OF_ASC_NODE":358.7105,"ARG_OF_PERICENTER":300.5309,"MEAN_ANOMALY":59.4087,"EPHEMERIS_TYPE":0,"CLASSIFICATION_TYPE":"U","NORAD_CAT_ID":57311,"ELEMENT_SET_NO":999,"REV_AT_EPOCH":11293,"BSTAR":0.0021378,"MEAN_MOTION_DOT":0.00039825,"MEAN_MOTION_DDOT":0},{"OBJECT_NAME":"STARLINK-6290","OBJECT_ID":"2023-099A","EPOCH":"2025-07-27T20:49:48.694944","MEAN_MOTION":15.0253443,"ECCENTRICITY":0.0001251,"INCLINATION":43.004,"RA_OF_ASC_NODE":30.9271,"ARG_OF_PERICENTER":270.7908,"MEAN_ANOMALY":89.2791,"EPHEMERIS_TYPE":0,"CLASSIFICATION_TYPE":"U","NORAD_CAT_ID":57328,"ELEMENT_SET_NO":999,"REV_AT_EPOCH":11303,"BSTAR":1.4424e-5,"MEAN_MOTION_DOT":-9.0e-8,"MEAN_MOTION_DDOT":0},{"OBJECT_NAME":"STARLINK-6138","OBJECT_ID":"2023-099B","EPOCH":"2025-07-27T12:36:46.860768","MEAN_MOTION":15.02539348,"ECCENTRICITY":0.0001174,"INCLINATION":43.004,"RA_OF_ASC_NODE":32.6595,"ARG_OF_PERICENTER":272.3187,"MEAN_ANOMALY":87.7521,"EPHEMERIS_TYPE":0,"CLASSIFICATION_TYPE":"U","NORAD_CAT_ID":57329,"ELEMENT_SET_NO":999,"REV_AT_EPOCH":11224,"BSTAR":-7.7218e-6,"MEAN_MOTION_DOT":-3.08e-6,"MEAN_MOTION_DDOT":0}]
