STARLINK-30238          
1 57296U 23096G   25208.47414904  .00039728  00000+0  21123-2 0  9998
2 57296  43.0008 358.9208 0015223 299.5946  60.3384 15.14534134113851
STARLINK-30234          
1 57297U 23096H   25208.72110915  .00089381  00000+0  28509-2 0  9997
2 57297  42.9948 336.9558 0027089 327.4273  32.4908 15.31165419113008
STARLINK-30241          
1 57298U 23096J   25208.48123544  .00043629  00000+0  21719-2 0  9994
2 57298  42.9985 356.3812 0015523 306.2959  53.6454 15.16809895113866
STARLINK-30199          
1 57299U 23096K   25208.91668981  .00603403  00000+0  44875-2 0  9992
2 57299  42.9810 316.5961 0030645   1.5090 334.6116 15.69693953113377
STARLINK-30236          
1 57300U 23096L   25208.70665393  .00000432  00000+0  47042-4 0  9990
2 57300  43.0054   5.6932 0001053 269.9054  90.1667 15.02539576112682
STARLINK-30201          
1 57301U 23096M   25208.76980605  .00000011  00000+0  15854-4 0  9992
2 57301  43.0044   5.3120 0001079 270.4989  89.5730 15.02535577112680
STARLINK-30233          
1 57302U 23096N   25208.69999634 -.00000089  00000+0  85073-5 0  9994
2 57302  43.0054   5.6268 0001356 263.9528  96.1160 15.02533056112683
STARLINK-30232          
1 57303U 23096P   25208.41107527  .00041329  00000+0  22125-2 0  9994
2 57303  43.0008 359.3086 0014610 302.4406  57.5028 15.14284095113685
STARLINK-30177          
1 57305U 23096R   25208.76693256  .00040513  00000+0  21433-2 0  9998
2 57305  43.0002 356.8088 0015485 300.1590  59.7722 15.14700348112784
STARLINK-30200          
1 57306U 23096S   25208.48428063  .00042427  00000+0  21267-2 0  9991
2 57306  42.9991 356.4308 0016138 303.1356  56.7943 15.16570690112969
STARLINK-30209          
1 57307U 23096T   25208.44786861  .00040252  00000+0  21507-2 0  9992
2 57307  42.9996 358.7023 0014687 299.9903  59.9486 15.14361625112939
STARLINK-30194          
1 57308U 23096U   25208.91668981  .00217719  00000+0  33344-2 0  9993
2 57308  42.9905 324.6564 0028332 347.9159 285.1065 15.52397432113160
STARLINK-30163          
1 57309U 23096V   25208.45030966  .00060333  00000+0  23049-2 0  9998
2 57309  42.9990 345.1285 0022378 315.2639  44.6407 15.25574701113083
STARLINK-30184          
1 57310U 23096W   25208.35815211  .00000638  00000+0  62327-4 0  9999
2 57310  43.0021 341.5235 0001290 270.6292  89.4403 15.02537878113123
STARLINK-30175          
1 57311U 23096X   25208.44725580  .00039825  00000+0  21378-2 0  9998
2 57311  42.9998 358.7105 0014693 300.5309  59.4087 15.14201675112933
STARLINK-6290           
1 57328U 23099A   25208.86792471 -.00000009  00000+0  14424-4 0  9997
2 57328  43.0040  30.9271 0001251 270.7908  89.2791 15.02534430113033
STARLINK-6138           
1 57329U 23099B   25208.52554237 -.00000308  00000+0 -77218-5 0  9991
2 57329  43.0040  32.6595 0001174 272.3187  87.7521 15.02539348112242
